[{"OBJECT_NAME":"LEMUR-2-CALLUM-K-J","OBJECT_ID":"2026-004B","EPOCH":"2026-03-09T22:32:55.398048","MEAN_MOTION":14.87314253,"ECCENTRICITY":0.00103405,"INCLINATION":97.8064,"RA_OF_ASC_NODE":69.1156,"ARG_OF_PERICENTER":95.8442,"MEAN_ANOMALY":264.3953,"EPHEMERIS_TYPE":0,"CLASSIFICATION_TYPE":"U","NORAD_CAT_ID":67364,"ELEMENT_SET_NO":999,"REV_AT_EPOCH":853,"BSTAR":0.00054257986,"MEAN_MOTION_DOT":4.848e-5,"MEAN_MOTION_DDOT":0},{"OBJECT_NAME":"SL-14 R\/B","OBJECT_ID":"1984-111B","EPOCH":"2026-03-09T21:13:00.090048","MEAN_MOTION":14.86060168,"ECCENTRICITY":0.00194189,"INCLINATION":82.512,"RA_OF_ASC_NODE":256.2815,"ARG_OF_PERICENTER":336.2654,"MEAN_ANOMALY":23.7664,"EPHEMERIS_TYPE":0,"CLASSIFICATION_TYPE":"U","NORAD_CAT_ID":15370,"ELEMENT_SET_NO":999,"REV_AT_EPOCH":21590,"BSTAR":6.4730325e-5,"MEAN_MOTION_DOT":5.92e-6,"MEAN_MOTION_DDOT":0}]
